{
    "links": {
        "self": "http://www.neowsapp.com/rest/v1/neo/3694526?api_key=iIulBulltgU6a56xZRHN4H3l9WmuAYTsLGpBGhQ2"
    },
    "id": "3694526",
    "neo_reference_id": "3694526",
    "name": "(2014 UY57)",
    "designation": "2014 UY57",
    "nasa_jpl_url": "http://ssd.jpl.nasa.gov/sbdb.cgi?sstr=3694526",
    "absolute_magnitude_h": 27.2,
    "estimated_diameter": {
        "kilometers": {
            "estimated_diameter_min": 0.0096506147,
            "estimated_diameter_max": 0.0215794305
        },
        "meters": {
            "estimated_diameter_min": 9.6506146958,
            "estimated_diameter_max": 21.5794304844
        },
        "miles": {
            "estimated_diameter_min": 0.0059966121,
            "estimated_diameter_max": 0.0134088323
        },
        "feet": {
            "estimated_diameter_min": 31.6621227185,
            "estimated_diameter_max": 70.7986587106
        }
    },
    "is_potentially_hazardous_asteroid": false,
    "close_approach_data": [
        {
            "close_approach_date": "2014-10-20",
            "close_approach_date_full": "2014-Oct-20 02:14",
            "epoch_date_close_approach": 1413771240000,
            "relative_velocity": {
                "kilometers_per_second": "9.1438861187",
                "kilometers_per_hour": "32917.9900273138",
                "miles_per_hour": "20453.9588589162"
            },
            "miss_distance": {
                "astronomical": "0.0195240342",
                "lunar": "7.5948493038",
                "kilometers": "2920753.930127154",
                "miles": "1814872.3354325652"
            },
            "orbiting_body": "Earth"
        }
    ],
    "orbital_data": {
        "orbit_id": "7",
        "orbit_determination_date": "2017-04-06 08:37:52",
        "first_observation_date": "2014-10-25",
        "last_observation_date": "2014-10-30",
        "data_arc_in_days": 5,
        "observations_used": 30,
        "orbit_uncertainty": "8",
        "minimum_orbit_intersection": ".00243697",
        "jupiter_tisserand_invariant": "3.305",
        "epoch_osculation": "2456957.5",
        "eccentricity": ".5818889104295814",
        "semi_major_axis": "2.353045829292236",
        "inclination": ".2204938093490766",
        "ascending_node_longitude": "59.36389029533408",
        "orbital_period": "1318.390319897332",
        "perihelion_distance": ".9838345554945063",
        "perihelion_argument": "304.4992126888749",
        "aphelion_distance": "3.722257103089966",
        "perihelion_time": "2456933.113742813033",
        "mean_anomaly": "6.6589176625567",
        "mean_motion": ".2730602573204836",
        "equinox": "J2000",
        "orbit_class": {
            "orbit_class_type": "APO",
            "orbit_class_description": "Near-Earth asteroid orbits which cross the Earth’s orbit similar to that of 1862 Apollo",
            "orbit_class_range": "a (semi-major axis) > 1.0 AU; q (perihelion) < 1.017 AU"
        }
    },
    "is_sentry_object": false
}